ONEWEB-0674             
1 55833U 23029AP  26005.28852191 -.00000123  00000+0 -36495-3 0  9996
2 55833  87.9008 322.1905 0002194  74.7635 285.3737 13.14501766138010
ONEWEB-0675             
1 55834U 23029AQ  26005.27695874  .00000068  00000+0  13877-3 0  9994
2 55834  87.9212 337.4014 0001535  88.4173 271.7136 13.19724533137436
ONEWEB-0720             
1 55835U 23029AR  26005.19323801  .00000037  00000+0  59083-4 0  9990
2 55835  87.9212 337.4164 0001639  69.9720 290.1589 13.19724452137347
ONEWEB-0537             
1 56046U 23043A   26005.25711784  .00000072  00000+0  15447-3 0  9993
2 56046  87.9041 261.2126 0001408  82.3527 277.7764 13.16594102137522
ONEWEB-0538             
1 56047U 23043B   26005.25077757  .00000052  00000+0  10126-3 0  9996
2 56047  87.9041 261.2176 0001232  72.4769 287.6497 13.16593352137531
ONEWEB-0546             
1 56048U 23043C   26005.23811394  .00000206  00000+0  50556-3 0  9990
2 56048  87.9048 261.2142 0001538 101.2276 258.9028 13.16593858137526
ONEWEB-0547             
1 56049U 23043D   26005.27453050  .00000066  00000+0  12896-3 0  9995
2 56049  87.9224 276.4693 0001534  70.0201 290.1098 13.21827735136703
ONEWEB-0548             
1 56050U 23043E   26005.26264254 -.00000092  00000+0 -27320-3 0  9991
2 56050  87.9035 261.2126 0002018  73.3421 286.7932 13.16592769137525
